EUTELSAT 8 WEST B       
1 40875U 15039B   25365.10671471 -.00000048  00000+0  00000+0 0  9991
2 40875   0.0650 346.9466 0004130 292.7503 210.5015  1.00271439 37978
EUTELSAT 9B             
1 41310U 16005A   25365.11009475  .00000079  00000+0  00000+0 0  9993
2 41310   0.0401  60.9089 0004959 217.6691 229.8178  1.00270971 36437
EUTELSAT 65 WEST A      
1 41382U 16014A   25365.18675586 -.00000259  00000+0  00000+0 0  9992
2 41382   0.0759 309.0262 0002640 334.1114 178.7489  1.00268822 35856
EUTELSAT 117 WEST B     
1 41589U 16038B   25364.87095052  .00000006  00000+0  00000+0 0  9995
2 41589   0.0129 150.6636 0000413 263.6431 241.7876  1.00271693 34978
EUTELSAT 172B           
1 42741U 17029B   25365.12058686  .00000011  00000+0  00000+0 0  9994
2 42741   0.0357 142.5090 0000267  88.6885  83.9953  1.00270273 32042
EUTELSAT 5 WEST B       
1 44624U 19067A   25365.10732139 -.00000025  00000+0  00000+0 0  9996
2 44624   0.0798 320.7638 0003422 317.5718 215.0773  1.00270326 22750
EUTELSAT KONNECT        
1 45027U 20005B   25365.02169523  .00000066  00000+0  00000+0 0  9994
2 45027   0.0671  93.4538 0001675 194.6388 186.6091  1.00268005 22652
